[{"OBJECT_NAME":"FLOCK 4Q-34","OBJECT_ID":"2023-174BN","EPOCH":"2026-03-09T16:57:56.689632","MEAN_MOTION":15.55591297,"ECCENTRICITY":0.00066181,"INCLINATION":97.3851,"RA_OF_ASC_NODE":158.6249,"ARG_OF_PERICENTER":141.603,"MEAN_ANOMALY":218.5696,"EPHEMERIS_TYPE":0,"CLASSIFICATION_TYPE":"U","NORAD_CAT_ID":58316,"ELEMENT_SET_NO":999,"REV_AT_EPOCH":13044,"BSTAR":0.00072636739,"MEAN_MOTION_DOT":0.00049937,"MEAN_MOTION_DDOT":0},{"OBJECT_NAME":"STARLINK-36642","OBJECT_ID":"2026-022M","EPOCH":"2026-03-09T22:00:01.999584","MEAN_MOTION":15.67111512,"ECCENTRICITY":0.00014785,"INCLINATION":97.2846,"RA_OF_ASC_NODE":102.9081,"ARG_OF_PERICENTER":66.7517,"MEAN_ANOMALY":337.0736,"EPHEMERIS_TYPE":0,"CLASSIFICATION_TYPE":"U","NORAD_CAT_ID":67659,"ELEMENT_SET_NO":999,"REV_AT_EPOCH":608,"BSTAR":-0.020317165,"MEAN_MOTION_DOT":-0.01917754,"MEAN_MOTION_DDOT":0}]
